EUTELSAT 10B            
1 54259U 22157A   24055.19446378  .00000063  00000+0  00000+0 0  9997
2 54259   0.0529  96.7548 0004755 187.9420 308.8321  1.00269552  4564
GALAXY 35 (G-35)        
1 54741U 22170A   24055.49694089 -.00000166  00000+0  00000+0 0  9990
2 54741   0.0144 118.5056 0001602 223.4714 257.6562  1.00272452  4448
GALAXY 36 (G-36)        
1 54742U 22170B   24055.29979872 -.00000189  00000+0  00000+0 0  9990
2 54742   0.0138 122.3624 0002034 290.7851 119.4248  1.00272398  4316
METEOSAT-12 (MTG-I1)    
1 54743U 22170C   24055.55049316 -.00000010  00000+0  00000+0 0  9994
2 54743   0.3900   7.8503 0000253 321.8003  22.0352  1.00273990  4512
SHIJIAN-23 (SJ-23)      
1 55131U 23002A   24055.50313306 -.00000363  00000+0  00000+0 0  9990
2 55131   1.5367  89.2557 0001153 294.7654  72.8782  1.00089587  4053
USA 340                 
1 55138U 22144E   24054.38710410 -.00000097  00000+0  00000+0 0  9999
2 55138   3.5525  65.1467 0022640 314.8357 182.8677  0.99590811  3316
USA 342                 
1 55263U 23008A   24055.26160613  .00000134  00000+0  00000+0 0  9991
2 55263   0.0304  98.8652 0000045 343.2164 189.7361  1.00273017  4066
LDPE-3A                 
1 55264U 23008B   24055.52688287  .00000050  00000+0  00000+0 0  9990
2 55264   0.9522  88.7064 0000320 131.2987 332.7606  1.01190827  3358
ELEKTRO-L 4             
1 55506U 23016A   24055.11301525 -.00000064  00000+0  00000+0 0  9996
2 55506   0.0442 261.7722 0002370  35.3336  62.8366  1.00271398  3864
AMAZONAS NEXUS          
1 55508U 23017A   24054.48215869 -.00000289  00000+0  00000+0 0  9992
2 55508   0.0438  42.0676 0004664 321.8707 261.4558  1.00269482  3784
CHINASAT 26 (ZX 26)     
1 55686U 23023A   24055.53104779 -.00000357  00000+0  00000+0 0  9996
2 55686   0.0656  82.0361 0002352 318.1061  70.0421  1.00273039  3777
LUCH-5X (OLYMP-K 2)     
1 55841U 23031A   24055.53938197  .00000012  00000+0  00000+0 0  9994
2 55841   0.0081 108.2408 0001846 184.3377  58.0818  1.00270307  3484
GAOFEN-13 02            
1 55912U 23036A   24055.63106998 -.00000235  00000+0  00000+0 0  9993
2 55912   2.2723 303.5752 0004513 318.7277 265.5926  1.00271298  3630
SES-18                  
1 55970U 23038A   24055.56652083 -.00000104  00000+0  00000+0 0  9997
2 55970   0.0568 274.7732 0002681  26.3867 313.5792  1.00271294  3647
SES-19                  
1 55971U 23038B   24055.54823255  .00000084  00000+0  00000+0 0  9993
2 55971   0.0523 292.3040 0001775  50.3738 233.6517  1.00271718  3619
INTELSAT 40E (IS-40E)   
1 56174U 23052A   24055.49890029 -.00000178  00000+0  00000+0 0  9997
2 56174   0.0124 131.1500 0001048 182.2911 289.0059  1.00272125  3365
VIASAT-3                
1 56370U 23060A   24055.29979872 -.00000189  00000+0  00000+0 0  9998
2 56370   0.0429 121.4715 0000876 253.1156 158.0698  1.00269861  2982
ARCTURUS                
1 56371U 23060B   24055.53104779 -.00000309  00000+0  00000+0 0  9996
2 56371   0.5893  89.6971 0004453 235.4932 146.6292  0.99443496  3004
GS-1                    
1 56372U 23060C   24055.44021569 -.00000063  00000+0  00000+0 0  9999
2 56372   0.5475  88.1799 0002278 245.4894 144.3161  1.00273200  2965
BEIDOU-3 G4             
1 56564U 23066A   24055.58799220 -.00000117  00000+0  00000+0 0  9999
2 56564   2.4080 288.2080 0002538 204.2159  33.2092  1.00271074  2936
ARABSAT-7B (BADR-8)     
1 56757U 23075A   24054.91118491  .00000139  00000+0  00000+0 0  9997
2 56757   0.0776  30.4115 0005229 319.9659 156.9163  1.00268204  2675
IRNSS-1J (NVS-01)       
1 56759U 23076A   24055.50461243 -.00000344  00000+0  00000+0 0  9991
2 56759   4.2912 268.5983 0007642  12.4026 183.9958  1.00267895  2651
NUSANTARA TIGA (SATRIA) 
1 57045U 23086A   24055.42740292 -.00000239  00000+0  00000+0 0  9999
2 57045   0.0110 285.4997 0005878  37.8521 130.3105  1.00267507  1308
H2SAT (HEINRICH HERTZ)  
1 57213U 23093A   24055.40706007 -.00000004  00000+0  00000+0 0  9998
2 57213   0.0221 154.7284 0001795 308.2227 197.8554  1.00270115  2459
SYRACUSE 4B             
1 57214U 23093B   24055.03730019 -.00000059  00000+0  00000+0 0  9998
2 57214   0.0115 127.0529 0000357 179.0658 214.2224  1.00270994  1050
JUPITER 3 (ECHOSTAR 24) 
1 57479U 23108A   24052.84440507 -.00000161  00000+0  00000+0 0  9998
2 57479   0.0280 122.3891 0004148 259.9852 337.6437  1.00286210  2169
GALAXY 37 (G-37)        
1 57493U 23112A   24055.54520400  .00000045  00000+0  00000+0 0  9990
2 57493   0.0125  74.6607 0002074 256.8885 251.6210  1.00271341  2089
LUDI TANCE-4 01A        
1 57624U 23120A   24054.92389021 -.00000194  00000+0  00000+0 0  9994
2 57624  15.8760 214.4450 0003001 127.6392 233.4054  1.00272940  2083
TJS-10                  
1 58204U 23169A   24055.60164979  .00000001  00000+0  00000+0 0  9997
2 58204   0.3547  89.0228 0007147 257.9776 196.9086  1.00268846  1084
CHINASAT 6E (ZX 6E)     
1 58253U 23172A   24055.43020808 -.00000366  00000+0  00000+0 0  9993
2 58253   0.0269 196.6877 0000681 200.5968  26.8716  1.00274713  1197
YAOGAN-41               
1 58582U 23197A   24055.50339413 -.00000366  00000+0  00000+0 0  9998
2 58582   4.8459 307.7100 0014267 163.6672 347.0000  1.00269440   863
